{"type": "FeatureCollection", "features": [{"type": "Feature", "properties": {"code": "IND-002", "name": "Community 02 Industrial Facility", "source_type": "industrial", "pollutant": "NO2", "district_code": "VR-N-D01", "estimated_emission_index": 0.46}, "geometry": {"type": "Point", "coordinates": [31.70317826794818, 1.2993695239861593]}}, {"type": "Feature", "properties": {"code": "IND-011", "name": "Community 11 Industrial Facility", "source_type": "industrial", "pollutant": "NO2", "district_code": "VR-N-D04", "estimated_emission_index": 0.56}, "geometry": {"type": "Point", "coordinates": [32.277797360311006, 1.8035684444264402]}}, {"type": "Feature", "properties": {"code": "IND-021", "name": "Community 21 Industrial Facility", "source_type": "quarry", "pollutant": "NO2", "district_code": "VR-C-D03", "estimated_emission_index": 0.38}, "geometry": {"type": "Point", "coordinates": [32.32909094121738, 0.16471163754247345]}}, {"type": "Feature", "properties": {"code": "IND-024", "name": "Community 24 Industrial Facility", "source_type": "quarry", "pollutant": "NO2", "district_code": "VR-C-D04", "estimated_emission_index": 0.51}, "geometry": {"type": "Point", "coordinates": [32.94685987326574, 0.1940175473031045]}}, {"type": "Feature", "properties": {"code": "IND-025", "name": "Community 25 Industrial Facility", "source_type": "power_plant", "pollutant": "PM2.5", "district_code": "VR-S-D01", "estimated_emission_index": 0.74}, "geometry": {"type": "Point", "coordinates": [32.63076816746044, -1.7793589177202296]}}, {"type": "Feature", "properties": {"code": "IND-031", "name": "Community 31 Industrial Facility", "source_type": "industrial", "pollutant": "PM2.5", "district_code": "VR-S-D03", "estimated_emission_index": 0.42}, "geometry": {"type": "Point", "coordinates": [32.64597508227474, -1.2453151320295008]}}]}