{"type": "FeatureCollection", "features": [{"type": "Feature", "properties": {"code": "HF-001", "name": "Community 01 Health Centre", "facility_type": "hospital", "community_code": "VR-N-D01-C01", "district_code": "VR-N-D01", "has_lab_access": false}, "geometry": {"type": "Point", "coordinates": [31.64, 1.27]}}, {"type": "Feature", "properties": {"code": "HF-002", "name": "Community 02 Health Centre", "facility_type": "clinic", "community_code": "VR-N-D01-C02", "district_code": "VR-N-D01", "has_lab_access": true}, "geometry": {"type": "Point", "coordinates": [31.76, 1.35]}}, {"type": "Feature", "properties": {"code": "HF-003", "name": "Community 03 Health Centre", "facility_type": "hospital", "community_code": "VR-N-D01-C03", "district_code": "VR-N-D01", "has_lab_access": false}, "geometry": {"type": "Point", "coordinates": [31.880000000000003, 1.27]}}, {"type": "Feature", "properties": {"code": "HF-004", "name": "Community 04 Health Centre", "facility_type": "hospital", "community_code": "VR-N-D02-C01", "district_code": "VR-N-D02", "has_lab_access": true}, "geometry": {"type": "Point", "coordinates": [32.19, 1.27]}}, {"type": "Feature", "properties": {"code": "HF-005", "name": "Community 05 Health Centre", "facility_type": "clinic", "community_code": "VR-N-D02-C02", "district_code": "VR-N-D02", "has_lab_access": true}, "geometry": {"type": "Point", "coordinates": [32.309999999999995, 1.35]}}, {"type": "Feature", "properties": {"code": "HF-006", "name": "Community 06 Health Centre", "facility_type": "health_centre", "community_code": "VR-N-D02-C03", "district_code": "VR-N-D02", "has_lab_access": false}, "geometry": {"type": "Point", "coordinates": [32.42999999999999, 1.27]}}, {"type": "Feature", "properties": {"code": "HF-007", "name": "Community 07 Health Centre", "facility_type": "clinic", "community_code": "VR-N-D03-C01", "district_code": "VR-N-D03", "has_lab_access": true}, "geometry": {"type": "Point", "coordinates": [31.64, 1.72]}}, {"type": "Feature", "properties": {"code": "HF-008", "name": "Community 08 Health Centre", "facility_type": "health_centre", "community_code": "VR-N-D03-C02", "district_code": "VR-N-D03", "has_lab_access": true}, "geometry": {"type": "Point", "coordinates": [31.76, 1.8]}}, {"type": "Feature", "properties": {"code": "HF-009", "name": "Community 09 Health Centre", "facility_type": "health_centre", "community_code": "VR-N-D03-C03", "district_code": "VR-N-D03", "has_lab_access": false}, "geometry": {"type": "Point", "coordinates": [31.880000000000003, 1.72]}}, {"type": "Feature", "properties": {"code": "HF-010", "name": "Community 10 Health Centre", "facility_type": "health_centre", "community_code": "VR-N-D04-C01", "district_code": "VR-N-D04", "has_lab_access": true}, "geometry": {"type": "Point", "coordinates": [32.19, 1.72]}}, {"type": "Feature", "properties": {"code": "HF-011", "name": "Community 11 Health Centre", "facility_type": "clinic", "community_code": "VR-N-D04-C02", "district_code": "VR-N-D04", "has_lab_access": true}, "geometry": {"type": "Point", "coordinates": [32.309999999999995, 1.8]}}, {"type": "Feature", "properties": {"code": "HF-012", "name": "Community 12 Health Centre", "facility_type": "health_centre", "community_code": "VR-N-D04-C03", "district_code": "VR-N-D04", "has_lab_access": true}, "geometry": {"type": "Point", "coordinates": [32.42999999999999, 1.72]}}, {"type": "Feature", "properties": {"code": "HF-013", "name": "Community 13 Health Centre", "facility_type": "hospital", "community_code": "VR-C-D01-C01", "district_code": "VR-C-D01", "has_lab_access": true}, "geometry": {"type": "Point", "coordinates": [32.14, -0.23]}}, {"type": "Feature", "properties": {"code": "HF-014", "name": "Community 14 Health Centre", "facility_type": "hospital", "community_code": "VR-C-D01-C02", "district_code": "VR-C-D01", "has_lab_access": false}, "geometry": {"type": "Point", "coordinates": [32.26, -0.15]}}, {"type": "Feature", "properties": {"code": "HF-015", "name": "Community 15 Health Centre", "facility_type": "hospital", "community_code": "VR-C-D01-C03", "district_code": "VR-C-D01", "has_lab_access": true}, "geometry": {"type": "Point", "coordinates": [32.379999999999995, -0.23]}}, {"type": "Feature", "properties": {"code": "HF-016", "name": "Community 16 Health Centre", "facility_type": "clinic", "community_code": "VR-C-D02-C01", "district_code": "VR-C-D02", "has_lab_access": false}, "geometry": {"type": "Point", "coordinates": [32.69, -0.23]}}, {"type": "Feature", "properties": {"code": "HF-017", "name": "Community 17 Health Centre", "facility_type": "health_centre", "community_code": "VR-C-D02-C02", "district_code": "VR-C-D02", "has_lab_access": false}, "geometry": {"type": "Point", "coordinates": [32.809999999999995, -0.15]}}, {"type": "Feature", "properties": {"code": "HF-018", "name": "Community 18 Health Centre", "facility_type": "hospital", "community_code": "VR-C-D02-C03", "district_code": "VR-C-D02", "has_lab_access": false}, "geometry": {"type": "Point", "coordinates": [32.92999999999999, -0.23]}}, {"type": "Feature", "properties": {"code": "HF-019", "name": "Community 19 Health Centre", "facility_type": "hospital", "community_code": "VR-C-D03-C01", "district_code": "VR-C-D03", "has_lab_access": true}, "geometry": {"type": "Point", "coordinates": [32.14, 0.22]}}, {"type": "Feature", "properties": {"code": "HF-020", "name": "Community 20 Health Centre", "facility_type": "hospital", "community_code": "VR-C-D03-C02", "district_code": "VR-C-D03", "has_lab_access": true}, "geometry": {"type": "Point", "coordinates": [32.26, 0.30000000000000004]}}, {"type": "Feature", "properties": {"code": "HF-021", "name": "Community 21 Health Centre", "facility_type": "hospital", "community_code": "VR-C-D03-C03", "district_code": "VR-C-D03", "has_lab_access": true}, "geometry": {"type": "Point", "coordinates": [32.379999999999995, 0.22]}}, {"type": "Feature", "properties": {"code": "HF-022", "name": "Community 22 Health Centre", "facility_type": "hospital", "community_code": "VR-C-D04-C01", "district_code": "VR-C-D04", "has_lab_access": false}, "geometry": {"type": "Point", "coordinates": [32.69, 0.22]}}, {"type": "Feature", "properties": {"code": "HF-023", "name": "Community 23 Health Centre", "facility_type": "health_centre", "community_code": "VR-C-D04-C02", "district_code": "VR-C-D04", "has_lab_access": true}, "geometry": {"type": "Point", "coordinates": [32.809999999999995, 0.30000000000000004]}}, {"type": "Feature", "properties": {"code": "HF-024", "name": "Community 24 Health Centre", "facility_type": "hospital", "community_code": "VR-C-D04-C03", "district_code": "VR-C-D04", "has_lab_access": true}, "geometry": {"type": "Point", "coordinates": [32.92999999999999, 0.22]}}, {"type": "Feature", "properties": {"code": "HF-025", "name": "Community 25 Health Centre", "facility_type": "clinic", "community_code": "VR-S-D01-C01", "district_code": "VR-S-D01", "has_lab_access": true}, "geometry": {"type": "Point", "coordinates": [32.64, -1.73]}}, {"type": "Feature", "properties": {"code": "HF-026", "name": "Community 26 Health Centre", "facility_type": "hospital", "community_code": "VR-S-D01-C02", "district_code": "VR-S-D01", "has_lab_access": true}, "geometry": {"type": "Point", "coordinates": [32.76, -1.65]}}, {"type": "Feature", "properties": {"code": "HF-027", "name": "Community 27 Health Centre", "facility_type": "clinic", "community_code": "VR-S-D01-C03", "district_code": "VR-S-D01", "has_lab_access": true}, "geometry": {"type": "Point", "coordinates": [32.879999999999995, -1.73]}}, {"type": "Feature", "properties": {"code": "HF-028", "name": "Community 28 Health Centre", "facility_type": "clinic", "community_code": "VR-S-D02-C01", "district_code": "VR-S-D02", "has_lab_access": true}, "geometry": {"type": "Point", "coordinates": [33.19, -1.73]}}, {"type": "Feature", "properties": {"code": "HF-029", "name": "Community 29 Health Centre", "facility_type": "health_centre", "community_code": "VR-S-D02-C02", "district_code": "VR-S-D02", "has_lab_access": true}, "geometry": {"type": "Point", "coordinates": [33.309999999999995, -1.65]}}, {"type": "Feature", "properties": {"code": "HF-030", "name": "Community 30 Health Centre", "facility_type": "clinic", "community_code": "VR-S-D02-C03", "district_code": "VR-S-D02", "has_lab_access": false}, "geometry": {"type": "Point", "coordinates": [33.42999999999999, -1.73]}}, {"type": "Feature", "properties": {"code": "HF-031", "name": "Community 31 Health Centre", "facility_type": "hospital", "community_code": "VR-S-D03-C01", "district_code": "VR-S-D03", "has_lab_access": true}, "geometry": {"type": "Point", "coordinates": [32.64, -1.28]}}, {"type": "Feature", "properties": {"code": "HF-032", "name": "Community 32 Health Centre", "facility_type": "hospital", "community_code": "VR-S-D03-C02", "district_code": "VR-S-D03", "has_lab_access": true}, "geometry": {"type": "Point", "coordinates": [32.76, -1.2]}}, {"type": "Feature", "properties": {"code": "HF-033", "name": "Community 33 Health Centre", "facility_type": "hospital", "community_code": "VR-S-D03-C03", "district_code": "VR-S-D03", "has_lab_access": true}, "geometry": {"type": "Point", "coordinates": [32.879999999999995, -1.28]}}, {"type": "Feature", "properties": {"code": "HF-034", "name": "Community 34 Health Centre", "facility_type": "health_centre", "community_code": "VR-S-D04-C01", "district_code": "VR-S-D04", "has_lab_access": true}, "geometry": {"type": "Point", "coordinates": [33.19, -1.28]}}, {"type": "Feature", "properties": {"code": "HF-035", "name": "Community 35 Health Centre", "facility_type": "hospital", "community_code": "VR-S-D04-C02", "district_code": "VR-S-D04", "has_lab_access": true}, "geometry": {"type": "Point", "coordinates": [33.309999999999995, -1.2]}}, {"type": "Feature", "properties": {"code": "HF-036", "name": "Community 36 Health Centre", "facility_type": "clinic", "community_code": "VR-S-D04-C03", "district_code": "VR-S-D04", "has_lab_access": true}, "geometry": {"type": "Point", "coordinates": [33.42999999999999, -1.28]}}]}