{"type": "FeatureCollection", "features": [{"type": "Feature", "properties": {"code": "AQ-001", "name": "Community 01 Air Quality Station", "community_code": "VR-N-D01-C01", "district_code": "VR-N-D01", "site_type": "ambient_air"}, "geometry": {"type": "Point", "coordinates": [31.619999999999997, 1.25]}}, {"type": "Feature", "properties": {"code": "AQ-002", "name": "Community 02 Air Quality Station", "community_code": "VR-N-D01-C02", "district_code": "VR-N-D01", "site_type": "ambient_air"}, "geometry": {"type": "Point", "coordinates": [31.74, 1.33]}}, {"type": "Feature", "properties": {"code": "AQ-003", "name": "Community 03 Air Quality Station", "community_code": "VR-N-D01-C03", "district_code": "VR-N-D01", "site_type": "ambient_air"}, "geometry": {"type": "Point", "coordinates": [31.86, 1.25]}}, {"type": "Feature", "properties": {"code": "AQ-004", "name": "Community 04 Air Quality Station", "community_code": "VR-N-D02-C01", "district_code": "VR-N-D02", "site_type": "ambient_air"}, "geometry": {"type": "Point", "coordinates": [32.17, 1.25]}}, {"type": "Feature", "properties": {"code": "AQ-005", "name": "Community 05 Air Quality Station", "community_code": "VR-N-D02-C02", "district_code": "VR-N-D02", "site_type": "ambient_air"}, "geometry": {"type": "Point", "coordinates": [32.29, 1.33]}}, {"type": "Feature", "properties": {"code": "AQ-006", "name": "Community 06 Air Quality Station", "community_code": "VR-N-D02-C03", "district_code": "VR-N-D02", "site_type": "ambient_air"}, "geometry": {"type": "Point", "coordinates": [32.41, 1.25]}}, {"type": "Feature", "properties": {"code": "AQ-007", "name": "Community 07 Air Quality Station", "community_code": "VR-N-D03-C01", "district_code": "VR-N-D03", "site_type": "ambient_air"}, "geometry": {"type": "Point", "coordinates": [31.619999999999997, 1.7]}}, {"type": "Feature", "properties": {"code": "AQ-008", "name": "Community 08 Air Quality Station", "community_code": "VR-N-D03-C02", "district_code": "VR-N-D03", "site_type": "ambient_air"}, "geometry": {"type": "Point", "coordinates": [31.74, 1.78]}}, {"type": "Feature", "properties": {"code": "AQ-009", "name": "Community 09 Air Quality Station", "community_code": "VR-N-D03-C03", "district_code": "VR-N-D03", "site_type": "ambient_air"}, "geometry": {"type": "Point", "coordinates": [31.86, 1.7]}}, {"type": "Feature", "properties": {"code": "AQ-010", "name": "Community 10 Air Quality Station", "community_code": "VR-N-D04-C01", "district_code": "VR-N-D04", "site_type": "ambient_air"}, "geometry": {"type": "Point", "coordinates": [32.17, 1.7]}}, {"type": "Feature", "properties": {"code": "AQ-011", "name": "Community 11 Air Quality Station", "community_code": "VR-N-D04-C02", "district_code": "VR-N-D04", "site_type": "ambient_air"}, "geometry": {"type": "Point", "coordinates": [32.29, 1.78]}}, {"type": "Feature", "properties": {"code": "AQ-012", "name": "Community 12 Air Quality Station", "community_code": "VR-N-D04-C03", "district_code": "VR-N-D04", "site_type": "ambient_air"}, "geometry": {"type": "Point", "coordinates": [32.41, 1.7]}}, {"type": "Feature", "properties": {"code": "AQ-013", "name": "Community 13 Air Quality Station", "community_code": "VR-C-D01-C01", "district_code": "VR-C-D01", "site_type": "ambient_air"}, "geometry": {"type": "Point", "coordinates": [32.120000000000005, -0.25]}}, {"type": "Feature", "properties": {"code": "AQ-014", "name": "Community 14 Air Quality Station", "community_code": "VR-C-D01-C02", "district_code": "VR-C-D01", "site_type": "ambient_air"}, "geometry": {"type": "Point", "coordinates": [32.24, -0.17]}}, {"type": "Feature", "properties": {"code": "AQ-015", "name": "Community 15 Air Quality Station", "community_code": "VR-C-D01-C03", "district_code": "VR-C-D01", "site_type": "ambient_air"}, "geometry": {"type": "Point", "coordinates": [32.36, -0.25]}}, {"type": "Feature", "properties": {"code": "AQ-017", "name": "Community 17 Air Quality Station", "community_code": "VR-C-D02-C02", "district_code": "VR-C-D02", "site_type": "ambient_air"}, "geometry": {"type": "Point", "coordinates": [32.79, -0.17]}}, {"type": "Feature", "properties": {"code": "AQ-018", "name": "Community 18 Air Quality Station", "community_code": "VR-C-D02-C03", "district_code": "VR-C-D02", "site_type": "ambient_air"}, "geometry": {"type": "Point", "coordinates": [32.91, -0.25]}}, {"type": "Feature", "properties": {"code": "AQ-019", "name": "Community 19 Air Quality Station", "community_code": "VR-C-D03-C01", "district_code": "VR-C-D03", "site_type": "ambient_air"}, "geometry": {"type": "Point", "coordinates": [32.120000000000005, 0.19999999999999998]}}, {"type": "Feature", "properties": {"code": "AQ-020", "name": "Community 20 Air Quality Station", "community_code": "VR-C-D03-C02", "district_code": "VR-C-D03", "site_type": "ambient_air"}, "geometry": {"type": "Point", "coordinates": [32.24, 0.28]}}, {"type": "Feature", "properties": {"code": "AQ-021", "name": "Community 21 Air Quality Station", "community_code": "VR-C-D03-C03", "district_code": "VR-C-D03", "site_type": "ambient_air"}, "geometry": {"type": "Point", "coordinates": [32.36, 0.19999999999999998]}}, {"type": "Feature", "properties": {"code": "AQ-022", "name": "Community 22 Air Quality Station", "community_code": "VR-C-D04-C01", "district_code": "VR-C-D04", "site_type": "ambient_air"}, "geometry": {"type": "Point", "coordinates": [32.67, 0.19999999999999998]}}, {"type": "Feature", "properties": {"code": "AQ-023", "name": "Community 23 Air Quality Station", "community_code": "VR-C-D04-C02", "district_code": "VR-C-D04", "site_type": "ambient_air"}, "geometry": {"type": "Point", "coordinates": [32.79, 0.28]}}, {"type": "Feature", "properties": {"code": "AQ-025", "name": "Community 25 Air Quality Station", "community_code": "VR-S-D01-C01", "district_code": "VR-S-D01", "site_type": "ambient_air"}, "geometry": {"type": "Point", "coordinates": [32.620000000000005, -1.75]}}, {"type": "Feature", "properties": {"code": "AQ-026", "name": "Community 26 Air Quality Station", "community_code": "VR-S-D01-C02", "district_code": "VR-S-D01", "site_type": "ambient_air"}, "geometry": {"type": "Point", "coordinates": [32.74, -1.67]}}, {"type": "Feature", "properties": {"code": "AQ-027", "name": "Community 27 Air Quality Station", "community_code": "VR-S-D01-C03", "district_code": "VR-S-D01", "site_type": "ambient_air"}, "geometry": {"type": "Point", "coordinates": [32.86, -1.75]}}, {"type": "Feature", "properties": {"code": "AQ-028", "name": "Community 28 Air Quality Station", "community_code": "VR-S-D02-C01", "district_code": "VR-S-D02", "site_type": "ambient_air"}, "geometry": {"type": "Point", "coordinates": [33.17, -1.75]}}, {"type": "Feature", "properties": {"code": "AQ-029", "name": "Community 29 Air Quality Station", "community_code": "VR-S-D02-C02", "district_code": "VR-S-D02", "site_type": "ambient_air"}, "geometry": {"type": "Point", "coordinates": [33.29, -1.67]}}, {"type": "Feature", "properties": {"code": "AQ-030", "name": "Community 30 Air Quality Station", "community_code": "VR-S-D02-C03", "district_code": "VR-S-D02", "site_type": "ambient_air"}, "geometry": {"type": "Point", "coordinates": [33.41, -1.75]}}, {"type": "Feature", "properties": {"code": "AQ-032", "name": "Community 32 Air Quality Station", "community_code": "VR-S-D03-C02", "district_code": "VR-S-D03", "site_type": "ambient_air"}, "geometry": {"type": "Point", "coordinates": [32.74, -1.22]}}, {"type": "Feature", "properties": {"code": "AQ-033", "name": "Community 33 Air Quality Station", "community_code": "VR-S-D03-C03", "district_code": "VR-S-D03", "site_type": "ambient_air"}, "geometry": {"type": "Point", "coordinates": [32.86, -1.3]}}, {"type": "Feature", "properties": {"code": "AQ-034", "name": "Community 34 Air Quality Station", "community_code": "VR-S-D04-C01", "district_code": "VR-S-D04", "site_type": "ambient_air"}, "geometry": {"type": "Point", "coordinates": [33.17, -1.3]}}, {"type": "Feature", "properties": {"code": "AQ-035", "name": "Community 35 Air Quality Station", "community_code": "VR-S-D04-C02", "district_code": "VR-S-D04", "site_type": "ambient_air"}, "geometry": {"type": "Point", "coordinates": [33.29, -1.22]}}, {"type": "Feature", "properties": {"code": "AQ-036", "name": "Community 36 Air Quality Station", "community_code": "VR-S-D04-C03", "district_code": "VR-S-D04", "site_type": "ambient_air"}, "geometry": {"type": "Point", "coordinates": [33.41, -1.3]}}]}