{"type": "FeatureCollection", "features": [{"type": "Feature", "properties": {"code": "VR", "name": "Verdania", "level": "country"}, "geometry": {"type": "MultiPolygon", "coordinates": [[[[30.25, -2.5], [34.75, -2.5], [34.75, 2.5], [30.25, 2.5], [30.25, -2.5]]]]}}, {"type": "Feature", "properties": {"code": "VR-N", "name": "Northern Verdania", "level": "region"}, "geometry": {"type": "MultiPolygon", "coordinates": [[[[31.3, 0.9], [32.7, 0.9], [32.7, 2.1], [31.3, 2.1], [31.3, 0.9]]]]}}, {"type": "Feature", "properties": {"code": "VR-N-D01", "name": "Northern District 1", "level": "district"}, "geometry": {"type": "MultiPolygon", "coordinates": [[[[31.5, 1.1], [32.0, 1.1], [32.0, 1.5], [31.5, 1.5], [31.5, 1.1]]]]}}, {"type": "Feature", "properties": {"code": "VR-N-D01-C01", "name": "Community 01", "level": "community", "district_code": "VR-N-D01"}, "geometry": {"type": "MultiPolygon", "coordinates": [[[[31.58, 1.22], [31.68, 1.22], [31.68, 1.3], [31.58, 1.3], [31.58, 1.22]]]]}}, {"type": "Feature", "properties": {"code": "VR-N-D01-C02", "name": "Community 02", "level": "community", "district_code": "VR-N-D01"}, "geometry": {"type": "MultiPolygon", "coordinates": [[[[31.7, 1.3], [31.8, 1.3], [31.8, 1.3800000000000001], [31.7, 1.3800000000000001], [31.7, 1.3]]]]}}, {"type": "Feature", "properties": {"code": "VR-N-D01-C03", "name": "Community 03", "level": "community", "district_code": "VR-N-D01"}, "geometry": {"type": "MultiPolygon", "coordinates": [[[[31.82, 1.22], [31.92, 1.22], [31.92, 1.3], [31.82, 1.3], [31.82, 1.22]]]]}}, {"type": "Feature", "properties": {"code": "VR-N-D02", "name": "Northern District 2", "level": "district"}, "geometry": {"type": "MultiPolygon", "coordinates": [[[[32.05, 1.1], [32.55, 1.1], [32.55, 1.5], [32.05, 1.5], [32.05, 1.1]]]]}}, {"type": "Feature", "properties": {"code": "VR-N-D02-C01", "name": "Community 04", "level": "community", "district_code": "VR-N-D02"}, "geometry": {"type": "MultiPolygon", "coordinates": [[[[32.13, 1.22], [32.23, 1.22], [32.23, 1.3], [32.13, 1.3], [32.13, 1.22]]]]}}, {"type": "Feature", "properties": {"code": "VR-N-D02-C02", "name": "Community 05", "level": "community", "district_code": "VR-N-D02"}, "geometry": {"type": "MultiPolygon", "coordinates": [[[[32.25, 1.3], [32.349999999999994, 1.3], [32.349999999999994, 1.3800000000000001], [32.25, 1.3800000000000001], [32.25, 1.3]]]]}}, {"type": "Feature", "properties": {"code": "VR-N-D02-C03", "name": "Community 06", "level": "community", "district_code": "VR-N-D02"}, "geometry": {"type": "MultiPolygon", "coordinates": [[[[32.37, 1.22], [32.46999999999999, 1.22], [32.46999999999999, 1.3], [32.37, 1.3], [32.37, 1.22]]]]}}, {"type": "Feature", "properties": {"code": "VR-N-D03", "name": "Northern District 3", "level": "district"}, "geometry": {"type": "MultiPolygon", "coordinates": [[[[31.5, 1.55], [32.0, 1.55], [32.0, 1.95], [31.5, 1.95], [31.5, 1.55]]]]}}, {"type": "Feature", "properties": {"code": "VR-N-D03-C01", "name": "Community 07", "level": "community", "district_code": "VR-N-D03"}, "geometry": {"type": "MultiPolygon", "coordinates": [[[[31.58, 1.67], [31.68, 1.67], [31.68, 1.75], [31.58, 1.75], [31.58, 1.67]]]]}}, {"type": "Feature", "properties": {"code": "VR-N-D03-C02", "name": "Community 08", "level": "community", "district_code": "VR-N-D03"}, "geometry": {"type": "MultiPolygon", "coordinates": [[[[31.7, 1.75], [31.8, 1.75], [31.8, 1.83], [31.7, 1.83], [31.7, 1.75]]]]}}, {"type": "Feature", "properties": {"code": "VR-N-D03-C03", "name": "Community 09", "level": "community", "district_code": "VR-N-D03"}, "geometry": {"type": "MultiPolygon", "coordinates": [[[[31.82, 1.67], [31.92, 1.67], [31.92, 1.75], [31.82, 1.75], [31.82, 1.67]]]]}}, {"type": "Feature", "properties": {"code": "VR-N-D04", "name": "Northern District 4", "level": "district"}, "geometry": {"type": "MultiPolygon", "coordinates": [[[[32.05, 1.55], [32.55, 1.55], [32.55, 1.95], [32.05, 1.95], [32.05, 1.55]]]]}}, {"type": "Feature", "properties": {"code": "VR-N-D04-C01", "name": "Community 10", "level": "community", "district_code": "VR-N-D04"}, "geometry": {"type": "MultiPolygon", "coordinates": [[[[32.13, 1.67], [32.23, 1.67], [32.23, 1.75], [32.13, 1.75], [32.13, 1.67]]]]}}, {"type": "Feature", "properties": {"code": "VR-N-D04-C02", "name": "Community 11", "level": "community", "district_code": "VR-N-D04"}, "geometry": {"type": "MultiPolygon", "coordinates": [[[[32.25, 1.75], [32.349999999999994, 1.75], [32.349999999999994, 1.83], [32.25, 1.83], [32.25, 1.75]]]]}}, {"type": "Feature", "properties": {"code": "VR-N-D04-C03", "name": "Community 12", "level": "community", "district_code": "VR-N-D04"}, "geometry": {"type": "MultiPolygon", "coordinates": [[[[32.37, 1.67], [32.46999999999999, 1.67], [32.46999999999999, 1.75], [32.37, 1.75], [32.37, 1.67]]]]}}, {"type": "Feature", "properties": {"code": "VR-C", "name": "Central Verdania", "level": "region"}, "geometry": {"type": "MultiPolygon", "coordinates": [[[[31.8, -0.6], [33.2, -0.6], [33.2, 0.6], [31.8, 0.6], [31.8, -0.6]]]]}}, {"type": "Feature", "properties": {"code": "VR-C-D01", "name": "Central District 1", "level": "district"}, "geometry": {"type": "MultiPolygon", "coordinates": [[[[32.0, -0.4], [32.5, -0.4], [32.5, 0.0], [32.0, 0.0], [32.0, -0.4]]]]}}, {"type": "Feature", "properties": {"code": "VR-C-D01-C01", "name": "Community 13", "level": "community", "district_code": "VR-C-D01"}, "geometry": {"type": "MultiPolygon", "coordinates": [[[[32.080000000000005, -0.28], [32.18, -0.28], [32.18, -0.2], [32.080000000000005, -0.2], [32.080000000000005, -0.28]]]]}}, {"type": "Feature", "properties": {"code": "VR-C-D01-C02", "name": "Community 14", "level": "community", "district_code": "VR-C-D01"}, "geometry": {"type": "MultiPolygon", "coordinates": [[[[32.2, -0.2], [32.3, -0.2], [32.3, -0.12], [32.2, -0.12], [32.2, -0.2]]]]}}, {"type": "Feature", "properties": {"code": "VR-C-D01-C03", "name": "Community 15", "level": "community", "district_code": "VR-C-D01"}, "geometry": {"type": "MultiPolygon", "coordinates": [[[[32.32, -0.28], [32.419999999999995, -0.28], [32.419999999999995, -0.2], [32.32, -0.2], [32.32, -0.28]]]]}}, {"type": "Feature", "properties": {"code": "VR-C-D02", "name": "Central District 2", "level": "district"}, "geometry": {"type": "MultiPolygon", "coordinates": [[[[32.55, -0.4], [33.05, -0.4], [33.05, 0.0], [32.55, 0.0], [32.55, -0.4]]]]}}, {"type": "Feature", "properties": {"code": "VR-C-D02-C01", "name": "Community 16", "level": "community", "district_code": "VR-C-D02"}, "geometry": {"type": "MultiPolygon", "coordinates": [[[[32.63, -0.28], [32.73, -0.28], [32.73, -0.2], [32.63, -0.2], [32.63, -0.28]]]]}}, {"type": "Feature", "properties": {"code": "VR-C-D02-C02", "name": "Community 17", "level": "community", "district_code": "VR-C-D02"}, "geometry": {"type": "MultiPolygon", "coordinates": [[[[32.75, -0.2], [32.849999999999994, -0.2], [32.849999999999994, -0.12], [32.75, -0.12], [32.75, -0.2]]]]}}, {"type": "Feature", "properties": {"code": "VR-C-D02-C03", "name": "Community 18", "level": "community", "district_code": "VR-C-D02"}, "geometry": {"type": "MultiPolygon", "coordinates": [[[[32.87, -0.28], [32.96999999999999, -0.28], [32.96999999999999, -0.2], [32.87, -0.2], [32.87, -0.28]]]]}}, {"type": "Feature", "properties": {"code": "VR-C-D03", "name": "Central District 3", "level": "district"}, "geometry": {"type": "MultiPolygon", "coordinates": [[[[32.0, 0.04999999999999999], [32.5, 0.04999999999999999], [32.5, 0.45], [32.0, 0.45], [32.0, 0.04999999999999999]]]]}}, {"type": "Feature", "properties": {"code": "VR-C-D03-C01", "name": "Community 19", "level": "community", "district_code": "VR-C-D03"}, "geometry": {"type": "MultiPolygon", "coordinates": [[[[32.080000000000005, 0.16999999999999998], [32.18, 0.16999999999999998], [32.18, 0.25], [32.080000000000005, 0.25], [32.080000000000005, 0.16999999999999998]]]]}}, {"type": "Feature", "properties": {"code": "VR-C-D03-C02", "name": "Community 20", "level": "community", "district_code": "VR-C-D03"}, "geometry": {"type": "MultiPolygon", "coordinates": [[[[32.2, 0.25000000000000006], [32.3, 0.25000000000000006], [32.3, 0.33], [32.2, 0.33], [32.2, 0.25000000000000006]]]]}}, {"type": "Feature", "properties": {"code": "VR-C-D03-C03", "name": "Community 21", "level": "community", "district_code": "VR-C-D03"}, "geometry": {"type": "MultiPolygon", "coordinates": [[[[32.32, 0.16999999999999998], [32.419999999999995, 0.16999999999999998], [32.419999999999995, 0.25], [32.32, 0.25], [32.32, 0.16999999999999998]]]]}}, {"type": "Feature", "properties": {"code": "VR-C-D04", "name": "Central District 4", "level": "district"}, "geometry": {"type": "MultiPolygon", "coordinates": [[[[32.55, 0.04999999999999999], [33.05, 0.04999999999999999], [33.05, 0.45], [32.55, 0.45], [32.55, 0.04999999999999999]]]]}}, {"type": "Feature", "properties": {"code": "VR-C-D04-C01", "name": "Community 22", "level": "community", "district_code": "VR-C-D04"}, "geometry": {"type": "MultiPolygon", "coordinates": [[[[32.63, 0.16999999999999998], [32.73, 0.16999999999999998], [32.73, 0.25], [32.63, 0.25], [32.63, 0.16999999999999998]]]]}}, {"type": "Feature", "properties": {"code": "VR-C-D04-C02", "name": "Community 23", "level": "community", "district_code": "VR-C-D04"}, "geometry": {"type": "MultiPolygon", "coordinates": [[[[32.75, 0.25000000000000006], [32.849999999999994, 0.25000000000000006], [32.849999999999994, 0.33], [32.75, 0.33], [32.75, 0.25000000000000006]]]]}}, {"type": "Feature", "properties": {"code": "VR-C-D04-C03", "name": "Community 24", "level": "community", "district_code": "VR-C-D04"}, "geometry": {"type": "MultiPolygon", "coordinates": [[[[32.87, 0.16999999999999998], [32.96999999999999, 0.16999999999999998], [32.96999999999999, 0.25], [32.87, 0.25], [32.87, 0.16999999999999998]]]]}}, {"type": "Feature", "properties": {"code": "VR-S", "name": "Southern Verdania", "level": "region"}, "geometry": {"type": "MultiPolygon", "coordinates": [[[[32.3, -2.1], [33.7, -2.1], [33.7, -0.9], [32.3, -0.9], [32.3, -2.1]]]]}}, {"type": "Feature", "properties": {"code": "VR-S-D01", "name": "Southern District 1", "level": "district"}, "geometry": {"type": "MultiPolygon", "coordinates": [[[[32.5, -1.9], [33.0, -1.9], [33.0, -1.5], [32.5, -1.5], [32.5, -1.9]]]]}}, {"type": "Feature", "properties": {"code": "VR-S-D01-C01", "name": "Community 25", "level": "community", "district_code": "VR-S-D01"}, "geometry": {"type": "MultiPolygon", "coordinates": [[[[32.580000000000005, -1.78], [32.68, -1.78], [32.68, -1.7], [32.580000000000005, -1.7], [32.580000000000005, -1.78]]]]}}, {"type": "Feature", "properties": {"code": "VR-S-D01-C02", "name": "Community 26", "level": "community", "district_code": "VR-S-D01"}, "geometry": {"type": "MultiPolygon", "coordinates": [[[[32.7, -1.7], [32.8, -1.7], [32.8, -1.6199999999999999], [32.7, -1.6199999999999999], [32.7, -1.7]]]]}}, {"type": "Feature", "properties": {"code": "VR-S-D01-C03", "name": "Community 27", "level": "community", "district_code": "VR-S-D01"}, "geometry": {"type": "MultiPolygon", "coordinates": [[[[32.82, -1.78], [32.919999999999995, -1.78], [32.919999999999995, -1.7], [32.82, -1.7], [32.82, -1.78]]]]}}, {"type": "Feature", "properties": {"code": "VR-S-D02", "name": "Southern District 2", "level": "district"}, "geometry": {"type": "MultiPolygon", "coordinates": [[[[33.05, -1.9], [33.55, -1.9], [33.55, -1.5], [33.05, -1.5], [33.05, -1.9]]]]}}, {"type": "Feature", "properties": {"code": "VR-S-D02-C01", "name": "Community 28", "level": "community", "district_code": "VR-S-D02"}, "geometry": {"type": "MultiPolygon", "coordinates": [[[[33.13, -1.78], [33.23, -1.78], [33.23, -1.7], [33.13, -1.7], [33.13, -1.78]]]]}}, {"type": "Feature", "properties": {"code": "VR-S-D02-C02", "name": "Community 29", "level": "community", "district_code": "VR-S-D02"}, "geometry": {"type": "MultiPolygon", "coordinates": [[[[33.25, -1.7], [33.349999999999994, -1.7], [33.349999999999994, -1.6199999999999999], [33.25, -1.6199999999999999], [33.25, -1.7]]]]}}, {"type": "Feature", "properties": {"code": "VR-S-D02-C03", "name": "Community 30", "level": "community", "district_code": "VR-S-D02"}, "geometry": {"type": "MultiPolygon", "coordinates": [[[[33.37, -1.78], [33.46999999999999, -1.78], [33.46999999999999, -1.7], [33.37, -1.7], [33.37, -1.78]]]]}}, {"type": "Feature", "properties": {"code": "VR-S-D03", "name": "Southern District 3", "level": "district"}, "geometry": {"type": "MultiPolygon", "coordinates": [[[[32.5, -1.45], [33.0, -1.45], [33.0, -1.05], [32.5, -1.05], [32.5, -1.45]]]]}}, {"type": "Feature", "properties": {"code": "VR-S-D03-C01", "name": "Community 31", "level": "community", "district_code": "VR-S-D03"}, "geometry": {"type": "MultiPolygon", "coordinates": [[[[32.580000000000005, -1.33], [32.68, -1.33], [32.68, -1.25], [32.580000000000005, -1.25], [32.580000000000005, -1.33]]]]}}, {"type": "Feature", "properties": {"code": "VR-S-D03-C02", "name": "Community 32", "level": "community", "district_code": "VR-S-D03"}, "geometry": {"type": "MultiPolygon", "coordinates": [[[[32.7, -1.25], [32.8, -1.25], [32.8, -1.17], [32.7, -1.17], [32.7, -1.25]]]]}}, {"type": "Feature", "properties": {"code": "VR-S-D03-C03", "name": "Community 33", "level": "community", "district_code": "VR-S-D03"}, "geometry": {"type": "MultiPolygon", "coordinates": [[[[32.82, -1.33], [32.919999999999995, -1.33], [32.919999999999995, -1.25], [32.82, -1.25], [32.82, -1.33]]]]}}, {"type": "Feature", "properties": {"code": "VR-S-D04", "name": "Southern District 4", "level": "district"}, "geometry": {"type": "MultiPolygon", "coordinates": [[[[33.05, -1.45], [33.55, -1.45], [33.55, -1.05], [33.05, -1.05], [33.05, -1.45]]]]}}, {"type": "Feature", "properties": {"code": "VR-S-D04-C01", "name": "Community 34", "level": "community", "district_code": "VR-S-D04"}, "geometry": {"type": "MultiPolygon", "coordinates": [[[[33.13, -1.33], [33.23, -1.33], [33.23, -1.25], [33.13, -1.25], [33.13, -1.33]]]]}}, {"type": "Feature", "properties": {"code": "VR-S-D04-C02", "name": "Community 35", "level": "community", "district_code": "VR-S-D04"}, "geometry": {"type": "MultiPolygon", "coordinates": [[[[33.25, -1.25], [33.349999999999994, -1.25], [33.349999999999994, -1.17], [33.25, -1.17], [33.25, -1.25]]]]}}, {"type": "Feature", "properties": {"code": "VR-S-D04-C03", "name": "Community 36", "level": "community", "district_code": "VR-S-D04"}, "geometry": {"type": "MultiPolygon", "coordinates": [[[[33.37, -1.33], [33.46999999999999, -1.33], [33.46999999999999, -1.25], [33.37, -1.25], [33.37, -1.33]]]]}}]}